[{"OBJECT_NAME":"YAOGAN-35 04C","OBJECT_ID":"2022-100E","EPOCH":"2026-03-09T22:54:54.133344","MEAN_MOTION":15.20344073,"ECCENTRICITY":0.00105729,"INCLINATION":34.9966,"RA_OF_ASC_NODE":338.2554,"ARG_OF_PERICENTER":249.1689,"MEAN_ANOMALY":110.7893,"EPHEMERIS_TYPE":0,"CLASSIFICATION_TYPE":"U","NORAD_CAT_ID":53526,"ELEMENT_SET_NO":999,"REV_AT_EPOCH":19784,"BSTAR":0.00040733017,"MEAN_MOTION_DOT":9.062e-5,"MEAN_MOTION_DDOT":0},{"OBJECT_NAME":"YAOGAN-36 05A","OBJECT_ID":"2023-106A","EPOCH":"2026-03-04T20:25:46.095744","MEAN_MOTION":15.23103701,"ECCENTRICITY":0.0001493,"INCLINATION":35.0062,"RA_OF_ASC_NODE":353.7983,"ARG_OF_PERICENTER":236.3594,"MEAN_ANOMALY":123.6979,"EPHEMERIS_TYPE":0,"CLASSIFICATION_TYPE":"U","NORAD_CAT_ID":57452,"ELEMENT_SET_NO":999,"REV_AT_EPOCH":14523,"BSTAR":0.00020950106,"MEAN_MOTION_DOT":5.028e-5,"MEAN_MOTION_DDOT":0}]
